OBJECT_NAME,OBJECT_ID,EPOCH,MEAN_MOTION,ECCENTRICITY,INCLINATION,RA_OF_ASC_NODE,ARG_OF_PERICENTER,MEAN_ANOMALY,EPHEMERIS_TYPE,CLASSIFICATION_TYPE,NORAD_CAT_ID,ELEMENT_SET_NO,REV_AT_EPOCH,BSTAR,MEAN_MOTION_DOT,MEAN_MOTION_DDOT
GUOWANG OBJECT A,2026-137A,2026-07-12T21:25:09.001056,13.89812741,.0012495,49.9997,153.0717,311.3863,48.5960,0,U,69572,999,359,.2450247E-5,-.143E-5,0
GUOWANG OBJECT B,2026-137B,2026-07-09T15:41:33.480672,13.89803849,.00118595,50.0016,165.9303,298.8434,61.1273,0,U,69573,999,315,-.55136387E-4,-.214E-5,0
GUOWANG OBJECT C,2026-137C,2026-07-12T21:19:24.187296,13.89814739,.0011896,49.9967,153.0345,311.4365,48.5511,0,U,69574,999,360,-.2748005E-4,-.18E-5,0
GUOWANG OBJECT D,2026-137D,2026-07-16T15:10:32.607840,13.85253720,.00005476,49.9997,138.1865,308.4892,51.5955,0,U,69575,999,412,-.52974018E-4,-.205E-5,0
GUOWANG OBJECT E,2026-137E,2026-07-12T00:33:49.286304,13.89824941,.00112248,50.0038,156.4799,310.0552,49.9361,0,U,69576,999,348,-.46562868E-4,-.204E-5,0
GUOWANG OBJECT F,2026-137F,2026-07-11T07:17:14.089920,13.89809360,.00108344,50.0028,159.3340,307.7048,52.2867,0,U,69577,999,338,-.46814787E-4,-.204E-5,0
GUOWANG OBJECT G,2026-137G,2026-07-11T07:16:00.337152,13.89795025,.0010806,49.9952,159.3085,307.5258,52.4657,0,U,69578,999,338,.35461E-5,-.142E-5,0
GUOWANG OBJECT H,2026-137H,2026-07-10T00:11:03.674688,13.89776278,.00102494,50.0012,164.4679,306.3680,53.6272,0,U,69579,999,320,-.23862216E-4,-.175E-5,0
GUOWANG OBJECT J,2026-137J,2026-06-27T06:41:01.268160,13.91997107,.0011832,49.9961,215.0979,257.3150,102.6427,0,U,69580,999,143,.13174E-3,.22E-6,0
CENTISPACE-1 GROUP 05 OBJECT A,2026-138A,2026-07-20T21:32:12.215904,14.15475187,.0011967,55.1404,156.7034,356.6360,3.4532,0,U,69582,999,479,.21595E-3,.27E-5,0
CENTISPACE-1 GROUP 05 OBJECT B,2026-138B,2026-07-20T21:25:59.310048,14.15653441,.0010948,55.1392,156.6792,357.1897,2.9014,0,U,69583,999,479,.17664E-3,.194E-5,0
CENTISPACE-1 GROUP 05 OBJECT C,2026-138C,2026-07-20T21:23:05.413632,14.15736067,.0010891,55.1398,156.6774,358.9632,1.1318,0,U,69584,999,479,.1433E-3,.129E-5,0
CENTISPACE-1 GROUP 05 OBJECT D,2026-138D,2026-07-20T06:02:03.249600,14.15919543,.00104168,55.1392,158.9942,356.9650,3.1259,0,U,69585,999,470,.67299937E-4,-.2E-6,0
CENTISPACE-1 GROUP 05 OBJECT F,2026-138F,2026-07-20T19:35:26.053728,14.15910316,.0010123,55.1388,156.9166,2.4796,357.6227,0,U,69587,999,478,.92106E-4,.29E-6,0
KUIPER-00423,2026-140A,2026-07-20T09:05:38.112576,15.38560785,.0013202,51.8792,237.9442,289.5860,70.3702,0,U,69592,999,634,.43450976E-3,.16485E-3,0
KUIPER-00428,2026-140B,2026-07-20T19:30:38.200032,15.37029240,.0008123,51.8796,236.3415,48.9308,311.2380,0,U,69593,999,640,.36847E-3,.13201E-3,0
KUIPER-00481,2026-140C,2026-07-20T14:05:13.472736,15.37897687,.0010893,51.8786,237.0855,310.2671,49.7363,0,U,69594,999,637,.1245E-3,.4324E-4,0
KUIPER-00490,2026-140D,2026-07-20T19:00:05.488416,15.37966683,.0007351,51.8758,236.1933,358.5273,1.5691,0,U,69595,999,640,.44485E-3,.16527E-3,0
KUIPER-00496,2026-140F,2026-07-20T11:05:12.047136,15.34039227,.00109797,51.8772,238.4717,68.8851,291.3307,0,U,69597,999,634,.14757112E-3,.4563E-4,0
KUIPER-00513,2026-140G,2026-07-20T11:06:27.039744,15.38226965,.00078389,51.8789,237.7530,356.1197,3.9728,0,U,69598,999,635,.30798981E-3,.11412E-3,0
KUIPER-00516,2026-140H,2026-07-20T09:47:35.011104,15.37661206,.0007397,51.8781,238.1256,13.1130,347.0048,0,U,69599,999,634,.20439E-3,.7293E-4,0
KUIPER-00517,2026-140J,2026-07-20T10:41:38.630400,15.38832216,.00106042,51.8759,237.6291,312.3615,47.6473,0,U,69600,999,635,.42506374E-3,.16247E-3,0
KUIPER-00520,2026-140K,2026-07-20T11:22:09.775200,15.37720467,.00069189,51.8797,237.8292,12.7706,347.3455,0,U,69601,999,635,.3901944E-3,.14325E-3,0
